NORAD_CAT_ID,OBJECT_NAME,OBJECT_TYPE,EPOCH,MEAN_MOTION,ECCENTRICITY,INCLINATION,RA_OF_ASC_NODE,ARG_OF_PERICENTER,MEAN_ANOMALY,BSTAR,MEAN_MOTION_DOT,MEAN_MOTION_DDOT,TLE_LINE0,TLE_LINE1,TLE_LINE2,SEMIMAJOR_AXIS,PERIOD,APOGEE,PERIGEE,DECAYED
53823.0,STARLINK-4748,PAYLOAD,2023-05-11 11:39:06,15.08843099,8.15e-05,53.2149,217.341,70.3977,289.7103,0.00010416,1.371e-05,0.0,0 STARLINK-4748,1 53823U 22114F   23131.48548675  .00001371  00000-0  10416-3 0  9995,2 53823  53.2149 217.3410 0000815  70.3977 289.7103 15.08843099 36930,6917.871,95.437,540.3,539.172,0.0
53823.0,STARLINK-4748,PAYLOAD,2023-05-11 13:14:29,15.08846091,8.76e-05,53.2149,217.0432,70.0059,290.1027,0.00015791,2.227e-05,0.0,0 STARLINK-4748,1 53823U 22114F   23131.55172577  .00002227  00000-0  15791-3 0  9999,2 53823  53.2149 217.0432 0000876  70.0059 290.1027 15.08846091 37494,6917.862,95.437,540.333,539.121,0.0
53823.0,STARLINK-4748,PAYLOAD,2023-05-12 08:19:07,15.08834324,9.26e-05,53.2154,213.4731,76.5843,283.5252,8.4681e-05,1.06e-05,0.0,0 STARLINK-4748,1 53823U 22114F   23132.34661206  .00001060  00000-0  84681-4 0  9998,2 53823  53.2154 213.4731 0000926  76.5843 283.5252 15.08834324 37616,6917.898,95.438,540.403,539.122,0.0
53823.0,STARLINK-4748,PAYLOAD,2023-05-13 11:20:39,15.0885106,9.59e-05,53.2154,208.4182,77.7621,282.3478,0.00018952,2.731e-05,0.0,0 STARLINK-4748,1 53823U 22114F   23133.47268389  .00002731  00000-0  18952-3 0  9991,2 53823  53.2154 208.4182 0000959  77.7621 282.3478 15.08851060 37784,6917.847,95.437,540.375,539.048,0.0
53823.0,STARLINK-4748,PAYLOAD,2023-05-13 12:56:02,15.08852434,9.98e-05,53.2155,208.1204,78.7538,281.3566,0.00021007,3.058e-05,0.0,0 STARLINK-4748,1 53823U 22114F   23133.53892294  .00003058  00000-0  21007-3 0  9994,2 53823  53.2155 208.1204 0000998  78.7538 281.3566 15.08852434 37242,6917.842,95.437,540.398,539.017,0.0
53823.0,STARLINK-4748,PAYLOAD,2023-05-14 12:46:50,15.08838913,0.0001274,53.2165,203.658,84.9428,275.1709,-2.1767e-05,-6.34e-06,0.0,0 STARLINK-4748,1 53823U 22114F   23134.53252965 -.00000634  00000-0 -21767-4 0  9993,2 53823  53.2165 203.6580 0001274  84.9428 275.1709 15.08838913 37397,6917.884,95.438,540.63,538.867,0.0
53823.0,STARLINK-4748,PAYLOAD,2023-05-14 14:22:13,15.08838663,0.0001262,53.2165,203.3605,87.2019,272.9117,-3.0325e-05,-7.7e-06,0.0,0 STARLINK-4748,1 53823U 22114F   23134.59876965 -.00000770  00000-0 -30325-4 0  9992,2 53823  53.2165 203.3605 0001262  87.2019 272.9117 15.08838663 37953,6917.884,95.438,540.623,538.876,0.0
53823.0,STARLINK-4748,PAYLOAD,2023-05-15 11:02:14,15.08844689,0.0001196,53.2161,199.4955,93.1279,266.985,-2.8311e-05,-7.38e-06,0.0,0 STARLINK-4748,1 53823U 22114F   23135.45988924 -.00000738  00000-0 -28311-4 0  9993,2 53823  53.2161 199.4955 0001196  93.1279 266.9850 15.08844689 38089,6917.866,95.437,540.558,538.904,0.0
53823.0,STARLINK-4748,PAYLOAD,2023-05-16 07:42:15,15.08834517,0.0001081,53.2153,195.6306,90.5276,269.584,7.9282e-05,9.74e-06,0.0,0 STARLINK-4748,1 53823U 22114F   23136.32101462  .00000974  00000-0  79282-4 0  9997,2 53823  53.2153 195.6306 0001081  90.5276 269.5840 15.08834517 37669,6917.897,95.438,540.51,539.014,0.0
53823.0,STARLINK-4748,PAYLOAD,2023-05-16 14:03:48,15.08836756,0.0001081,53.2153,194.441,89.5309,270.5807,9.0666e-05,1.155e-05,0.0,0 STARLINK-4748,1 53823U 22114F   23136.58597332  .00001155  00000-0  90666-4 0  9991,2 53823  53.2153 194.4410 0001081  89.5309 270.5807 15.08836756 38255,6917.89,95.438,540.503,539.007,0.0
53823.0,STARLINK-4748,PAYLOAD,2023-05-16 20:25:20,15.08835838,0.0001077,53.2153,193.2515,88.6497,271.4618,7.6106e-05,9.24e-06,0.0,0 STARLINK-4748,1 53823U 22114F   23136.85093485  .00000924  00000-0  76106-4 0  9997,2 53823  53.2153 193.2515 0001077  88.6497 271.4618 15.08835838 38295,6917.893,95.438,540.503,539.013,0.0
53823.0,STARLINK-4748,PAYLOAD,2023-05-17 09:08:26,15.08835847,0.0001057,53.2153,190.8728,87.0967,273.0146,5.2528e-05,5.48e-06,0.0,0 STARLINK-4748,1 53823U 22114F   23137.38085701  .00000548  00000-0  52528-4 0  9992,2 53823  53.2153 190.8728 0001057  87.0967 273.0146 15.08835847 37829,6917.893,95.438,540.489,539.027,0.0
53823.0,STARLINK-4748,PAYLOAD,2023-05-17 20:16:07,15.08838271,0.0001077,53.2152,188.7913,84.6778,275.4337,7.1645e-05,8.53e-06,0.0,0 STARLINK-4748,1 53823U 22114F   23137.84453548  .00000853  00000-0  71645-4 0  9991,2 53823  53.2152 188.7913 0001077  84.6778 275.4337 15.08838271 38446,6917.886,95.438,540.496,539.006,0.0
53823.0,STARLINK-4748,PAYLOAD,2023-05-18 12:09:59,15.08837324,0.000117,53.2161,185.818,86.7956,273.317,3.5275e-05,2.74e-06,0.0,0 STARLINK-4748,1 53823U 22114F   23138.50693868  .00000274  00000-0  35275-4 0  9992,2 53823  53.2161 185.8180 0001170  86.7956 273.3170 15.08837324 37994,6917.889,95.438,540.563,538.944,0.0
53823.0,STARLINK-4748,PAYLOAD,2023-05-18 20:06:55,15.08838256,0.0001172,53.2161,184.3312,86.4464,273.6662,4.1009e-05,3.65e-06,0.0,0 STARLINK-4748,1 53823U 22114F   23138.83813828  .00000365  00000-0  41009-4 0  9991,2 53823  53.2161 184.3312 0001172  86.4464 273.6662 15.08838256 38599,6917.886,95.438,540.561,538.94,0.0
53823.0,STARLINK-4748,PAYLOAD,2023-05-19 19:57:41,15.08841484,0.0001123,53.216,179.871,82.4302,277.6818,4.7186e-05,4.63e-06,0.0,0 STARLINK-4748,1 53823U 22114F   23139.83173574  .00000463  00000-0  47186-4 0  9990,2 53823  53.2160 179.8710 0001123  82.4302 277.6818 15.08841484 38743,6917.876,95.437,540.518,538.964,0.0
53823.0,STARLINK-4748,PAYLOAD,2023-05-20 02:19:14,15.08839057,0.0001125,53.2161,178.6819,82.1392,277.9728,5.4468e-05,5.79e-06,0.0,0 STARLINK-4748,1 53823U 22114F   23140.09669710  .00000579  00000-0  54468-4 0  9991,2 53823  53.2161 178.6819 0001125  82.1392 277.9728 15.08839057 38239,6917.883,95.438,540.527,538.97,0.0
53823.0,STARLINK-4748,PAYLOAD,2023-05-20 19:48:28,15.08847045,0.0001172,53.2161,175.4108,82.2793,277.8333,0.00010829,1.436e-05,0.0,0 STARLINK-4748,1 53823U 22114F   23140.82533042  .00001436  00000-0  10829-3 0  9995,2 53823  53.2161 175.4108 0001172  82.2793 277.8333 15.08847045 38892,6917.859,95.437,540.535,538.913,0.0
53823.0,STARLINK-4748,PAYLOAD,2023-05-21 02:10:00,15.08849037,0.0001239,53.2164,174.2216,81.5914,278.5218,7.7536e-05,9.47e-06,0.0,0 STARLINK-4748,1 53823U 22114F   23141.09028921  .00000947  00000-0  77536-4 0  9995,2 53823  53.2164 174.2216 0001239  81.5914 278.5218 15.08849037 38380,6917.853,95.437,540.575,538.861,0.0
53823.0,STARLINK-4748,PAYLOAD,2023-05-21 08:31:33,15.08849691,0.0001279,53.2164,173.0325,80.1488,279.9648,0.00010092,1.319e-05,0.0,0 STARLINK-4748,1 53823U 22114F   23141.35524737  .00001319  00000-0  10092-3 0  9997,2 53823  53.2164 173.0325 0001279  80.1488 279.9648 15.08849691 38976,6917.851,95.437,540.601,538.831,0.0
53823.0,STARLINK-4748,PAYLOAD,2023-05-21 19:39:15,15.08842967,0.0001257,53.216,170.9512,78.486,281.6274,4.0791e-05,3.61e-06,0.0,0 STARLINK-4748,1 53823U 22114F   23141.81893177  .00000361  00000-0  40791-4 0  9991,2 53823  53.2160 170.9512 0001257  78.4860 281.6274 15.08842967 39049,6917.871,95.437,540.606,538.867,0.0
53823.0,STARLINK-4748,PAYLOAD,2023-05-22 08:22:21,15.08834833,0.0001436,53.2169,168.5731,77.0023,283.1129,-1.15e-05,-4.71e-06,0.0,0 STARLINK-4748,1 53823U 22114F   23142.34885982 -.00000471  00000-0 -11500-4 0  9995,2 53823  53.2169 168.5731 0001436  77.0023 283.1129 15.08834833 38575,6917.896,95.438,540.755,538.768,0.0
53823.0,STARLINK-4748,PAYLOAD,2023-05-22 11:33:07,15.08833053,0.0001201,53.2162,167.976,94.3727,265.7402,-4.6871e-05,-1.034e-05,0.0,0 STARLINK-4748,1 53823U 22114F   23142.48134151 -.00001034  00000-0 -46871-4 0  9990,2 53823  53.2162 167.9760 0001201  94.3727 265.7402 15.08833053 39143,6917.902,95.438,540.597,538.936,0.0
53823.0,STARLINK-4748,PAYLOAD,2023-05-23 11:23:54,15.08839482,0.0001287,53.2162,163.5172,95.4612,264.6527,1.4202e-05,-6.2e-07,0.0,0 STARLINK-4748,1 53823U 22114F   23143.47493672 -.00000062  00000-0  14202-4 0  9998,2 53823  53.2162 163.5172 0001287  95.4612 264.6527 15.08839482 38744,6917.882,95.438,540.637,538.857,0.0
53823.0,STARLINK-4748,PAYLOAD,2023-05-23 17:45:27,15.0883561,0.0001335,53.2167,162.3268,97.6403,262.4741,1.6975e-05,-1.8e-07,0.0,0 STARLINK-4748,1 53823U 22114F   23143.73989966 -.00000018  00000-0  16975-4 0  9993,2 53823  53.2167 162.3268 0001335  97.6403 262.4741 15.08835610 39337,6917.894,95.438,540.682,538.835,0.0
53823.0,STARLINK-4748,PAYLOAD,2023-05-24 08:03:55,15.08835526,0.000112,53.2158,159.6499,91.8854,268.2266,0.00011399,1.527e-05,0.0,0 STARLINK-4748,1 53823U 22114F   23144.33605895  .00001527  00000-0  11399-3 0  9995,2 53823  53.2158 159.6499 0001120  91.8854 268.2266 15.08835526 39422,6917.894,95.438,540.534,538.984,0.0
53823.0,STARLINK-4748,PAYLOAD,2023-05-26 04:34:43,15.08838529,0.0001174,53.2159,151.3235,93.5791,266.5336,2.8369e-05,1.64e-06,0.0,0 STARLINK-4748,1 53823U 22114F   23146.19078436  .00000164  00000-0  28369-4 0  9998,2 53823  53.2159 151.3235 0001174  93.5791 266.5336 15.08838529 39153,6917.885,95.438,540.562,538.938,0.0
53823.0,STARLINK-4748,PAYLOAD,2023-05-26 09:20:53,15.08838405,0.0001169,53.2156,150.4317,95.1226,264.99,4.0367e-05,3.55e-06,0.0,0 STARLINK-4748,1 53823U 22114F   23146.38950413  .00000355  00000-0  40367-4 0  9997,2 53823  53.2156 150.4317 0001169  95.1226 264.9900 15.08838405 39732,6917.885,95.438,540.559,538.942,0.0
53823.0,STARLINK-4748,PAYLOAD,2023-05-27 07:36:17,15.08838293,0.0001123,53.2152,146.2684,96.0982,264.0138,5.501e-05,5.88e-06,0.0,0 STARLINK-4748,1 53823U 22114F   23147.31686456  .00000588  00000-0  55010-4 0  9993,2 53823  53.2152 146.2684 0001123  96.0982 264.0138 15.08838293 39321,6917.886,95.438,540.527,538.974,0.0
53823.0,STARLINK-4748,PAYLOAD,2023-05-27 17:08:36,15.08837398,0.0001146,53.2152,144.4841,89.3313,270.781,4.0268e-05,3.53e-06,0.0,0 STARLINK-4748,1 53823U 22114F   23147.71430646  .00000353  00000-0  40268-4 0  9994,2 53823  53.2152 144.4841 0001146  89.3313 270.7810 15.08837398 39937,6917.888,95.438,540.546,538.961,0.0
